start=new Date('2021-09-18T00:00:00.000Z').valueOf();
sats=[{"CENTER_NAME":"EARTH","GP_ID":"184909673","SITE":"AFETR","REF_FRAME":"TEME","TLE_LINE2":"2 45380  53.0550 281.6508 0001095  70.9051 289.2057 15.06388709 83738","RA_OF_ASC_NODE":"281.6508","TIME_SYSTEM":"UTC","EPOCH":"2021-09-17T18:05:34.439712","OBJECT_NAME":"STARLINK-1207","ARG_OF_PERICENTER":"70.9051","SEMIMAJOR_AXIS":"6925.383","EPHEMERIS_TYPE":"0","MEAN_MOTION_DDOT":"0.0000000000000","ECCENTRICITY":"0.00010950","MEAN_ANOMALY":"289.2057","ELEMENT_SET_NO":"999","PERIAPSIS":"546.490","MEAN_ELEMENT_THEORY":"SGP4","REV_AT_EPOCH":"8373","LAUNCH_DATE":"2020-03-18","OBJECT_ID":"2020-019W","FILE":"3118116","BSTAR":"-0.00000293210000","MEAN_MOTION_DOT":"-0.00000325","INCLINATION":"53.0550","PERIOD":"95.593","RCS_SIZE":"LARGE","APOAPSIS":"548.006","OBJECT_TYPE":"PAYLOAD","TLE_LINE1":"1 45380U 20019W   21260.75387083 -.00000325  00000-0 -29321-5 0  9998","NORAD_CAT_ID":"45380","DECAY_DATE":null,"COUNTRY_CODE":"US","MEAN_MOTION":"15.06388709","CLASSIFICATION_TYPE":"U"},{"RA_OF_ASC_NODE":"281.6035","TIME_SYSTEM":"UTC","EPOCH":"2021-09-17T18:21:29.663424","OBJECT_NAME":"STARLINK-1258","ARG_OF_PERICENTER":"74.6476","CENTER_NAME":"EARTH","GP_ID":"184909923","SITE":"AFETR","REF_FRAME":"TEME","TLE_LINE2":"2 45381  53.0528 281.6035 0000682  74.6476 285.4588 15.06397673 83739","ECCENTRICITY":"0.00006820","MEAN_ANOMALY":"285.4588","ELEMENT_SET_NO":"999","PERIAPSIS":"546.748","MEAN_ELEMENT_THEORY":"SGP4","REV_AT_EPOCH":"8373","SEMIMAJOR_AXIS":"6925.356","MEAN_MOTION_DDOT":"0.0000000000000","EPHEMERIS_TYPE":"0","INCLINATION":"53.0528","RCS_SIZE":"LARGE","PERIOD":"95.592","APOAPSIS":"547.693","LAUNCH_DATE":"2020-03-18","FILE":"3118116","BSTAR":"0.00009389000000","OBJECT_ID":"2020-019X","MEAN_MOTION_DOT":"0.00001118","COUNTRY_CODE":"US","MEAN_MOTION":"15.06397673","CLASSIFICATION_TYPE":"U","OBJECT_TYPE":"PAYLOAD","TLE_LINE1":"1 45381U 20019X   21260.76492666  .00001118  00000-0  93890-4 0  9994","NORAD_CAT_ID":"45381","DECAY_DATE":null},{"TLE_LINE1":"1 45382U 20019Y   21261.00001157  .00035861  00000-0  24155-2 0  9992","OBJECT_TYPE":"PAYLOAD","DECAY_DATE":null,"NORAD_CAT_ID":"45382","MEAN_MOTION":"15.06379380","CLASSIFICATION_TYPE":"U","COUNTRY_CODE":"US","MEAN_MOTION_DOT":"0.00035861","LAUNCH_DATE":"2020-03-18","BSTAR":"0.00241550000000","FILE":"3118116","OBJECT_ID":"2020-019Y","APOAPSIS":"547.832","INCLINATION":"53.0534","RCS_SIZE":"LARGE","PERIOD":"95.593","MEAN_MOTION_DDOT":"0.0000000000000","EPHEMERIS_TYPE":"0","SEMIMAJOR_AXIS":"6925.412","MEAN_ELEMENT_THEORY":"SGP4","PERIAPSIS":"546.721","REV_AT_EPOCH":"357","ECCENTRICITY":"0.00008020","MEAN_ANOMALY":"245.8454","ELEMENT_SET_NO":"999","SITE":"AFETR","TLE_LINE2":"2 45382  53.0534 280.5470 0000802  69.8054 245.8454 15.06379380  3571","REF_FRAME":"TEME","GP_ID":"184911174","CENTER_NAME":"EARTH","ARG_OF_PERICENTER":"69.8054","RA_OF_ASC_NODE":"280.5470","TIME_SYSTEM":"UTC","OBJECT_NAME":"STARLINK-1264","EPOCH":"2021-09-18T00:00:00.999648"},{"GP_ID":"184911425","CENTER_NAME":"EARTH","TLE_LINE2":"2 45383  53.0515 280.5468 0000504 107.3858 128.3655 15.06392410  3574","REF_FRAME":"TEME","SITE":"AFETR","OBJECT_NAME":"STARLINK-1266","EPOCH":"2021-09-18T00:00:00.999648","TIME_SYSTEM":"UTC","RA_OF_ASC_NODE":"280.5468","ARG_OF_PERICENTER":"107.3858","SEMIMAJOR_AXIS":"6925.372","EPHEMERIS_TYPE":"0","MEAN_MOTION_DDOT":"0.0000000000000","ELEMENT_SET_NO":"999","MEAN_ANOMALY":"128.3655","ECCENTRICITY":"0.00005040","REV_AT_EPOCH":"357","MEAN_ELEMENT_THEORY":"SGP4","PERIAPSIS":"546.888","FILE":"3118116","OBJECT_ID":"2020-019Z","BSTAR":"0.00200050000000","LAUNCH_DATE":"2020-03-18","MEAN_MOTION_DOT":"0.00029636","PERIOD":"95.593","RCS_SIZE":"LARGE","INCLINATION":"53.0515","APOAPSIS":"547.586","DECAY_DATE":null,"NORAD_CAT_ID":"45383","TLE_LINE1":"1 45383U 20019Z   21261.00001157  .00029636  00000-0  20005-2 0  9996","OBJECT_TYPE":"PAYLOAD","COUNTRY_CODE":"US","CLASSIFICATION_TYPE":"U","MEAN_MOTION":"15.06392410"},{"COUNTRY_CODE":"US","MEAN_MOTION":"15.06393067","CLASSIFICATION_TYPE":"U","TLE_LINE1":"1 45384U 20019AA  21260.54746562  .00000680  00000-0  64501-4 0  9990","OBJECT_TYPE":"PAYLOAD","DECAY_DATE":null,"NORAD_CAT_ID":"45384","INCLINATION":"53.0526","RCS_SIZE":"LARGE","PERIOD":"95.593","APOAPSIS":"547.673","LAUNCH_DATE":"2020-03-18","BSTAR":"0.00006450100000","FILE":"3118116","OBJECT_ID":"2020-019AA","MEAN_MOTION_DOT":"0.00000680","MEAN_ANOMALY":"266.9626","ECCENTRICITY":"0.00006330","ELEMENT_SET_NO":"999","MEAN_ELEMENT_THEORY":"SGP4","PERIAPSIS":"546.796","REV_AT_EPOCH":"8370","SEMIMAJOR_AXIS":"6925.370","EPHEMERIS_TYPE":"0","MEAN_MOTION_DDOT":"0.0000000000000","TIME_SYSTEM":"UTC","RA_OF_ASC_NODE":"282.5619","OBJECT_NAME":"STARLINK-1267","EPOCH":"2021-09-17T13:08:21.029568","ARG_OF_PERICENTER":"93.1436","GP_ID":"184910173","CENTER_NAME":"EARTH","SITE":"AFETR","TLE_LINE2":"2 45384  53.0526 282.5619 0000633  93.1436 266.9626 15.06393067 83703","REF_FRAME":"TEME"},{"OBJECT_TYPE":"PAYLOAD","TLE_LINE1":"1 45386U 20019AC  21260.55115411  .00001127  00000-0  94518-4 0  9994","NORAD_CAT_ID":"45386","DECAY_DATE":null,"MEAN_MOTION":"15.06392680","CLASSIFICATION_TYPE":"U","COUNTRY_CODE":"US","MEAN_MOTION_DOT":"0.00001127","LAUNCH_DATE":"2020-03-18","FILE":"3118116","BSTAR":"0.00009451800000","OBJECT_ID":"2020-019AC","APOAPSIS":"547.986","INCLINATION":"53.0540","PERIOD":"95.593","RCS_SIZE":"LARGE","MEAN_MOTION_DDOT":"0.0000000000000","EPHEMERIS_TYPE":"0","SEMIMAJOR_AXIS":"6925.371","PERIAPSIS":"546.486","MEAN_ELEMENT_THEORY":"SGP4","REV_AT_EPOCH":"8370","ECCENTRICITY":"0.00010830","MEAN_ANOMALY":"270.3809","ELEMENT_SET_NO":"999","SITE":"AFETR","REF_FRAME":"TEME","TLE_LINE2":"2 45386  53.0540 282.5631 0001083  89.7304 270.3809 15.06392680 83702","CENTER_NAME":"EARTH","GP_ID":"184910423","ARG_OF_PERICENTER":"89.7304","RA_OF_ASC_NODE":"282.5631","TIME_SYSTEM":"UTC","EPOCH":"2021-09-17T13:13:39.715104","OBJECT_NAME":"STARLINK-1272"},{"CLASSIFICATION_TYPE":"U","MEAN_MOTION":"15.06398733","COUNTRY_CODE":"US","DECAY_DATE":null,"NORAD_CAT_ID":"45387","TLE_LINE1":"1 45387U 20019AD  21260.44055995 -.00000835  00000-0 -37194-4 0  9997","OBJECT_TYPE":"PAYLOAD","APOAPSIS":"547.864","PERIOD":"95.592","RCS_SIZE":"LARGE","INCLINATION":"53.0536","MEAN_MOTION_DOT":"-0.00000835","BSTAR":"-0.00003719400000","FILE":"3118116","OBJECT_ID":"2020-019AD","LAUNCH_DATE":"2020-03-18","REV_AT_EPOCH":"8368","MEAN_ELEMENT_THEORY":"SGP4","PERIAPSIS":"546.571","ELEMENT_SET_NO":"999","MEAN_ANOMALY":"284.0270","ECCENTRICITY":"0.00009330","EPHEMERIS_TYPE":"0","MEAN_MOTION_DDOT":"0.0000000000000","SEMIMAJOR_AXIS":"6925.352","ARG_OF_PERICENTER":"76.0823","OBJECT_NAME":"STARLINK-1274","EPOCH":"2021-09-17T10:34:24.379680","RA_OF_ASC_NODE":"283.0601","TIME_SYSTEM":"UTC","TLE_LINE2":"2 45387  53.0536 283.0601 0000933  76.0823 284.0270 15.06398733 83685","REF_FRAME":"TEME","SITE":"AFETR","GP_ID":"184910675","CENTER_NAME":"EARTH"},{"APOAPSIS":"547.784","PERIOD":"95.593","RCS_SIZE":"LARGE","INCLINATION":"53.0540","MEAN_MOTION_DOT":"0.00000526","FILE":"3118116","BSTAR":"0.00005416800000","OBJECT_ID":"2020-019AE","LAUNCH_DATE":"2020-03-18","CLASSIFICATION_TYPE":"U","MEAN_MOTION":"15.06393970","COUNTRY_CODE":"US","DECAY_DATE":null,"NORAD_CAT_ID":"45388","TLE_LINE1":"1 45388U 20019AE  21260.80731267  .00000526  00000-0  54168-4 0  9996","OBJECT_TYPE":"PAYLOAD","ARG_OF_PERICENTER":"90.4256","OBJECT_NAME":"STARLINK-1280","EPOCH":"2021-09-17T19:22:31.814688","RA_OF_ASC_NODE":"301.4050","TIME_SYSTEM":"UTC","TLE_LINE2":"2 45388  53.0540 301.4050 0000797  90.4256 269.6825 15.06393970 83450","REF_FRAME":"TEME","SITE":"AFETR","GP_ID":"184910926","CENTER_NAME":"EARTH","REV_AT_EPOCH":"8345","MEAN_ELEMENT_THEORY":"SGP4","PERIAPSIS":"546.680","ELEMENT_SET_NO":"999","MEAN_ANOMALY":"269.6825","ECCENTRICITY":"0.00007970","EPHEMERIS_TYPE":"0","MEAN_MOTION_DDOT":"0.0000000000000","SEMIMAJOR_AXIS":"6925.367"},{"MEAN_ANOMALY":"273.2086","ECCENTRICITY":"0.00008220","ELEMENT_SET_NO":"999","MEAN_ELEMENT_THEORY":"SGP4","PERIAPSIS":"546.642","REV_AT_EPOCH":"8374","SEMIMAJOR_AXIS":"6925.346","EPHEMERIS_TYPE":"0","MEAN_MOTION_DDOT":"0.0000000000000","RA_OF_ASC_NODE":"281.4890","TIME_SYSTEM":"UTC","OBJECT_NAME":"STARLINK-1283","EPOCH":"2021-09-17T18:53:19.552704","ARG_OF_PERICENTER":"86.8997","GP_ID":"184909674","CENTER_NAME":"EARTH","SITE":"AFETR","TLE_LINE2":"2 45389  53.0532 281.4890 0000822  86.8997 273.2086 15.06400783 83744","REF_FRAME":"TEME","COUNTRY_CODE":"US","MEAN_MOTION":"15.06400783","CLASSIFICATION_TYPE":"U","TLE_LINE1":"1 45389U 20019AF  21260.78703186  .00000803  00000-0  72790-4 0  9992","OBJECT_TYPE":"PAYLOAD","DECAY_DATE":null,"NORAD_CAT_ID":"45389","INCLINATION":"53.0532","RCS_SIZE":"LARGE","PERIOD":"95.592","APOAPSIS":"547.780","LAUNCH_DATE":"2020-03-18","BSTAR":"0.00007279000000","FILE":"3118116","OBJECT_ID":"2020-019AF","MEAN_MOTION_DOT":"0.00000803"},{"GP_ID":"184878240","CENTER_NAME":"EARTH","TLE_LINE2":"2 45390  53.0549 283.1069 0000725  83.1998 276.9074 15.06392174 83688","REF_FRAME":"TEME","SITE":"AFETR","OBJECT_NAME":"STARLINK-1284","EPOCH":"2021-09-17T10:18:29.080800","RA_OF_ASC_NODE":"283.1069","TIME_SYSTEM":"UTC","ARG_OF_PERICENTER":"83.1998","SEMIMAJOR_AXIS":"6925.373","MEAN_MOTION_DDOT":"0.0000000000000","EPHEMERIS_TYPE":"0","ELEMENT_SET_NO":"999","MEAN_ANOMALY":"276.9074","ECCENTRICITY":"0.00007250","REV_AT_EPOCH":"8368","MEAN_ELEMENT_THEORY":"SGP4","PERIAPSIS":"546.735","BSTAR":"0.00005997600000","FILE":"3117657","OBJECT_ID":"2020-019AG","LAUNCH_DATE":"2020-03-18","MEAN_MOTION_DOT":"0.00000612","PERIOD":"95.593","RCS_SIZE":"LARGE","INCLINATION":"53.0549","APOAPSIS":"547.740","DECAY_DATE":null,"NORAD_CAT_ID":"45390","TLE_LINE1":"1 45390U 20019AG  21260.42950325  .00000612  00000-0  59976-4 0  9993","OBJECT_TYPE":"PAYLOAD","COUNTRY_CODE":"US","CLASSIFICATION_TYPE":"U","MEAN_MOTION":"15.06392174"}];
